GLOBALSTAR M023         
1 25621U 99004A   25079.93667435  .00000032  00000+0  75667-3 0  9992
2 25621  52.0124 322.1698 0009209 295.2985 180.9477 12.62502615204588
GLOBALSTAR M040         
1 25622U 99004B   25079.86944262 -.00000055  00000+0  27358-3 0  9991
2 25622  51.9935 326.3968 0000763 141.8410 298.0337 12.62005021204101
GLOBALSTAR M036         
1 25623U 99004C   25079.53043444 -.00000044  00000+0  56002-3 0  9994
2 25623  51.9945 114.0007 0011112 242.0628 270.7027 11.86591413168454
GLOBALSTAR M038         
1 25624U 99004D   25079.87196355 -.00000049  00000+0  37935-3 0  9991
2 25624  51.9995 325.9116 0001206 212.0070 247.3840 12.32522681191480
GLOBALSTAR M022         
1 25649U 99012A   25079.65145556 -.00000043  00000+0  52398-3 0  9994
2 25649  52.0032 171.5825 0002109  10.5831 134.4478 12.02497481165729
GLOBALSTAR M041         
1 25650U 99012B   25079.93008051 -.00000075  00000+0  12948-3 0  9997
2 25650  52.0031  49.5842 0001703 132.9672 227.1308 11.96668943167712
GLOBALSTAR M046         
1 25651U 99012C   25079.51872059 -.00000063  00000+0  28766-3 0  9991
2 25651  52.0034 125.3134 0002354  83.9622  64.2745 12.09406432172939
GLOBALSTAR M037         
1 25652U 99012D   25079.52635480 -.00000048  00000+0  31317-3 0  9997
2 25652  51.9990  94.0667 0001859 358.0142 168.1600 12.62439866200071
